OBJECT_NAME,OBJECT_ID,EPOCH,MEAN_MOTION,ECCENTRICITY,INCLINATION,RA_OF_ASC_NODE,ARG_OF_PERICENTER,MEAN_ANOMALY,EPHEMERIS_TYPE,CLASSIFICATION_TYPE,NORAD_CAT_ID,ELEMENT_SET_NO,REV_AT_EPOCH,BSTAR,MEAN_MOTION_DOT,MEAN_MOTION_DDOT
STARLINK-31636,2024-090T,2026-07-11T09:51:24.233760,15.27561985,.00007525,43.0016,204.6113,268.7589,91.3177,0,U,59747,999,12236,-.53470979E-4,-.1732E-4,0
STARLINK-31640,2024-090U,2026-07-11T10:15:26.235936,15.27564668,.00013105,43.0030,204.7390,261.0961,98.9742,0,U,59748,999,12236,.32652355E-4,.636E-5,0
STARLINK-31677,2024-090V,2026-07-11T10:39:29.029536,15.27576941,.00014831,43.0010,204.8611,266.2056,93.8626,0,U,59749,999,12235,.3626665E-5,-.162E-5,0
STARLINK-31783,2024-090W,2026-07-11T12:24:43.094880,15.27604563,.00010906,42.9947,204.5456,118.1530,241.9432,0,U,59750,999,12236,.82509459E-4,.2011E-4,0
STARLINK-31808,2024-090X,2026-07-11T12:33:46.666656,15.27579562,.00012062,42.9992,203.7376,281.4920,78.5796,0,U,59751,999,12237,.7703759E-5,-.5E-6,0
STARLINK-31822,2024-090Y,2026-07-11T09:56:56.019264,15.27581265,.00005964,43.0009,204.6382,226.5490,133.5312,0,U,59752,999,12235,-.51214646E-4,-.1671E-4,0
STARLINK-11118 [DTC],2024-091B,2026-07-11T14:53:58.706304,15.69686223,.00010195,53.1590,315.6565,66.8000,293.3125,0,U,59754,999,12497,.4335153E-5,-.64E-6,0
STARLINK-11132 [DTC],2024-091C,2026-07-11T19:14:54.258432,15.69687749,.00007414,53.1601,314.6523,88.3022,271.8081,0,U,59755,999,12500,.23834211E-4,.2298E-4,0
STARLINK-11131 [DTC],2024-091D,2026-07-11T14:32:46.878432,15.69700417,.00006271,53.1591,315.5607,75.0278,285.0810,0,U,59756,999,12497,-.5844563E-5,-.1295E-4,0
STARLINK-11114 [DTC],2024-091E,2026-07-11T14:25:43.348224,15.69698740,.00009663,53.1585,315.5471,132.0217,228.0884,0,U,59757,999,12497,-.293606E-6,-.624E-5,0
STARLINK-11105 [DTC],2024-091F,2026-07-11T14:18:41.221152,15.69669849,.00015063,53.1580,315.5147,151.5082,208.6019,0,U,59758,999,12497,-.45115298E-4,-.6042E-4,0
STARLINK-11097 [DTC],2024-091G,2026-07-11T14:11:37.138848,15.69685781,.00005574,53.1579,315.4647,91.1496,268.9586,0,U,59759,999,12497,-.19761569E-4,-.2978E-4,0
STARLINK-11098 [DTC],2024-091H,2026-07-11T12:32:50.053920,15.69712933,.00008676,53.1575,315.7415,76.9324,283.1791,0,U,59760,999,12496,.12591989E-4,.938E-5,0
STARLINK-11117 [DTC],2024-091J,2026-07-11T15:29:08.812032,15.69697963,.00012277,53.1597,315.0830,31.7716,328.3376,0,U,59761,999,12498,.12841389E-4,.966E-5,0
STARLINK-11110 [DTC],2024-091K,2026-07-11T19:57:08.041248,15.69690771,.00007761,53.1593,314.1088,44.4140,315.6940,0,U,59762,999,12501,.2259924E-4,.2148E-4,0
STARLINK-11104 [DTC],2024-091L,2026-07-11T15:15:00.930816,15.69684223,.00001905,53.1584,315.0172,171.6943,188.4078,0,U,59763,999,12498,.33557986E-4,.3476E-4,0
STARLINK-11111 [DTC],2024-091M,2026-07-11T22:00:03.000096,15.88243656,.00053681,53.1439,308.6992,323.4621,51.4243,0,U,59764,999,595,.56284939E-3,.160384E-2,0
STARLINK-11106 [DTC],2024-091N,2026-07-11T15:07:56.635104,15.69735840,.00008989,53.1606,314.9936,154.2557,205.8506,0,U,59765,999,12498,-.58028473E-4,-.7619E-4,0
STARLINK-31739,2024-091P,2026-07-11T21:42:27.463392,15.30193421,.00014631,53.1588,166.9917,92.1313,267.9855,0,U,59766,999,12206,-.57246519E-4,-.2054E-4,0
STARLINK-31828,2024-091Q,2026-07-11T07:43:30.378432,15.31710521,.00015835,53.1579,171.8763,61.9821,298.1340,0,U,59767,999,12194,.17789756E-4,.187E-5,0
STARLINK-31826,2024-091R,2026-07-11T08:01:28.904448,15.51089381,.00066702,53.1506,164.8063,11.2466,348.8692,0,U,59768,999,12204,.18667332E-2,.111788E-2,0
STARLINK-31830,2024-091S,2026-07-11T08:07:17.735808,15.30212306,.00008219,53.1577,172.6861,114.8009,245.3078,0,U,59769,999,12193,.20396322E-3,.5689E-4,0
STARLINK-31829,2024-091T,2026-07-10T08:22:49.366272,15.30197219,.00011972,53.1593,177.1814,67.2423,292.8705,0,U,59770,999,12178,.11272007E-4,-.25E-6,0
STARLINK-31786,2024-091U,2026-07-11T22:19:51.372480,15.30176926,.00008535,53.1586,169.9820,78.8921,281.2175,0,U,59771,999,12202,-.83634614E-4,-.2833E-4,0
STARLINK-31835,2024-091V,2026-07-11T21:42:25.822656,15.31702955,.00012544,53.1579,169.1105,69.4083,290.7052,0,U,59772,999,12203,-.7206463E-5,-.589E-5,0
COSMOS 2576,2024-092A,2026-07-11T17:40:56.489952,15.20242148,.0010862,97.4403,308.3674,287.4020,72.6027,0,U,59773,999,12011,.18988E-3,.4055E-4,0
2024-092B,2024-092B,2026-07-11T21:47:53.002176,15.29181468,.00099024,97.6511,322.7019,97.3381,262.8984,0,U,59774,999,11931,.22506837E-3,.6302E-4,0
2024-092C,2024-092C,2026-07-11T22:37:29.204832,15.29896175,.00099207,97.6657,324.6614,99.0054,261.2309,0,U,59775,999,11936,.21797435E-3,.6237E-4,0
2024-092D,2024-092D,2026-07-11T07:19:59.715264,15.37860467,.0007349,97.6592,326.3981,71.6485,288.5558,0,U,59776,999,11945,.33589384E-3,.12428E-3,0
2024-092E,2024-092E,2026-07-11T20:12:27.099648,15.37789691,.00074568,97.6592,326.9107,69.9738,290.2308,0,U,59777,999,11953,.32370032E-3,.11946E-3,0
