STARLINK-31636          
1 59747U 24090T   26192.41069715 -.00001732  00000+0 -53471-4 0  9998
2 59747  43.0016 204.6113 0000752 268.7589  91.3177 15.27561985122365
STARLINK-31640          
1 59748U 24090U   26192.42738699  .00000636  00000+0  32652-4 0  9992
2 59748  43.0030 204.7390 0001310 261.0961  98.9742 15.27564668122363
STARLINK-31677          
1 59749U 24090V   26192.44408599 -.00000162  00000+0  36267-5 0  9990
2 59749  43.0010 204.8611 0001483 266.2056  93.8626 15.27576941122353
STARLINK-31783          
1 59750U 24090W   26192.51716545  .00002011  00000+0  82509-4 0  9996
2 59750  42.9947 204.5456 0001090 118.1530 241.9432 15.27604563122366
STARLINK-31808          
1 59751U 24090X   26192.52345679 -.00000050  00000+0  77038-5 0  9998
2 59751  42.9992 203.7376 0001206 281.4920  78.5796 15.27579562122373
STARLINK-31822          
1 59752U 24090Y   26192.41453726 -.00001671  00000+0 -51215-4 0  9999
2 59752  43.0009 204.6382 0000596 226.5490 133.5312 15.27581265122352
STARLINK-11118 [DTC]    
1 59754U 24091B   26192.62081836 -.00000064  00000+0  43352-5 0  9992
2 59754  53.1590 315.6565 0001019  66.8000 293.3125 15.69686223124973
STARLINK-11132 [DTC]    
1 59755U 24091C   26192.80201688  .00002298  00000+0  23834-4 0  9994
2 59755  53.1601 314.6523 0000741  88.3022 271.8081 15.69687749125005
STARLINK-11131 [DTC]    
1 59756U 24091D   26192.60609813 -.00001295  00000+0 -58446-5 0  9991
2 59756  53.1591 315.5607 0000627  75.0278 285.0810 15.69700417124976
STARLINK-11114 [DTC]    
1 59757U 24091E   26192.60119616 -.00000624  00000+0 -29361-6 0  9999
2 59757  53.1585 315.5471 0000966 132.0217 228.0884 15.69698740124975
STARLINK-11105 [DTC]    
1 59758U 24091F   26192.59631043 -.00006042  00000+0 -45115-4 0  9994
2 59758  53.1580 315.5147 0001506 151.5082 208.6019 15.69669849124970
STARLINK-11097 [DTC]    
1 59759U 24091G   26192.59140207 -.00002978  00000+0 -19762-4 0  9995
2 59759  53.1579 315.4647 0000557  91.1496 268.9586 15.69685781124977
STARLINK-11098 [DTC]    
1 59760U 24091H   26192.52280155  .00000938  00000+0  12592-4 0  9993
2 59760  53.1575 315.7415 0000867  76.9324 283.1791 15.69712933124962
STARLINK-11117 [DTC]    
1 59761U 24091J   26192.64524088  .00000966  00000+0  12841-4 0  9991
2 59761  53.1597 315.0830 0001227  31.7716 328.3376 15.69697963124984
STARLINK-11110 [DTC]    
1 59762U 24091K   26192.83134307  .00002148  00000+0  22599-4 0  9999
2 59762  53.1593 314.1088 0000776  44.4140 315.6940 15.69690771125017
STARLINK-11104 [DTC]    
1 59763U 24091L   26192.63542744  .00003476  00000+0  33558-4 0  9998
2 59763  53.1584 315.0172 0000190 171.6943 188.4078 15.69684223124984
STARLINK-11111 [DTC]    
1 59764U 24091M   26192.91670139  .00160384  00000+0  56285-3 0  9993
2 59764  53.1439 308.6992 0005368 323.4621  51.4243 15.88243656  5954
STARLINK-11106 [DTC]    
1 59765U 24091N   26192.63051661 -.00007619  00000+0 -58028-4 0  9997
2 59765  53.1606 314.9936 0000898 154.2557 205.8506 15.69735840124982
STARLINK-31739          
1 59766U 24091P   26192.90448453 -.00002054  00000+0 -57247-4 0  9997
2 59766  53.1588 166.9917 0001463  92.1313 267.9855 15.30193421122069
STARLINK-31828          
1 59767U 24091Q   26192.32187938  .00000187  00000+0  17790-4 0  9994
2 59767  53.1579 171.8763 0001583  61.9821 298.1340 15.31710521121943
STARLINK-31826          
1 59768U 24091R   26192.33436232  .00111788  00000+0  18667-2 0  9992
2 59768  53.1506 164.8063 0006670  11.2466 348.8692 15.51089381122044
STARLINK-31830          
1 59769U 24091S   26192.33839972  .00005689  00000+0  20396-3 0  9996
2 59769  53.1577 172.6861 0000821 114.8009 245.3078 15.30212306121939
STARLINK-31829          
1 59770U 24091T   26191.34918248 -.00000025  00000+0  11272-4 0  9996
2 59770  53.1593 177.1814 0001197  67.2423 292.8705 15.30197219121787
STARLINK-31786          
1 59771U 24091U   26192.93045570 -.00002833  00000+0 -83635-4 0  9994
2 59771  53.1586 169.9820 0000853  78.8921 281.2175 15.30176926122028
STARLINK-31835          
1 59772U 24091V   26192.90446554 -.00000589  00000+0 -72065-5 0  9991
2 59772  53.1579 169.1105 0001254  69.4083 290.7052 15.31702955122038
COSMOS 2576             
1 59773U 24092A   26192.73676493  .00004055  00000+0  18988-3 0  9993
2 59773  97.4403 308.3674 0010862 287.4020  72.6027 15.20242148120119
2024-092B               
1 59774U 24092B   26192.90825234  .00006302  00000+0  22507-3 0  9991
2 59774  97.6511 322.7019 0009902  97.3381 262.8984 15.29181468119317
2024-092C               
1 59775U 24092C   26192.94269913  .00006237  00000+0  21797-3 0  9999
2 59775  97.6657 324.6614 0009920  99.0054 261.2309 15.29896175119364
2024-092D               
1 59776U 24092D   26192.30555226  .00012428  00000+0  33589-3 0  9996
2 59776  97.6592 326.3981 0007349  71.6485 288.5558 15.37860467119458
2024-092E               
1 59777U 24092E   26192.84198032  .00011946  00000+0  32370-3 0  9995
2 59777  97.6592 326.9107 0007456  69.9738 290.2308 15.37789691119536
